[{"OBJECT_NAME":"STARLINK-31540","OBJECT_ID":"2024-074J","EPOCH":"2026-03-09T03:30:32.001408","MEAN_MOTION":15.27607513,"ECCENTRICITY":0.00014766,"INCLINATION":43.005,"RA_OF_ASC_NODE":346.3865,"ARG_OF_PERICENTER":292.6506,"MEAN_ANOMALY":67.4189,"EPHEMERIS_TYPE":0,"CLASSIFICATION_TYPE":"U","NORAD_CAT_ID":59542,"ELEMENT_SET_NO":999,"REV_AT_EPOCH":10593,"BSTAR":0.00011655886,"MEAN_MOTION_DOT":2.949e-5,"MEAN_MOTION_DDOT":0},{"OBJECT_NAME":"ELECTRON KICK STAGE R\/B","OBJECT_ID":"2024-248B","EPOCH":"2026-03-09T20:49:52.700448","MEAN_MOTION":15.26602112,"ECCENTRICITY":0.00382118,"INCLINATION":97.6105,"RA_OF_ASC_NODE":34.9036,"ARG_OF_PERICENTER":284.4829,"MEAN_ANOMALY":75.2171,"EPHEMERIS_TYPE":0,"CLASSIFICATION_TYPE":"U","NORAD_CAT_ID":62407,"ELEMENT_SET_NO":999,"REV_AT_EPOCH":6727,"BSTAR":0.0006831254,"MEAN_MOTION_DOT":0.00018217,"MEAN_MOTION_DDOT":0}]
